[{"OBJECT_NAME":"STARLINK-4438","OBJECT_ID":"2022-105AL","EPOCH":"2026-03-09T15:20:08.690208","MEAN_MOTION":15.05649173,"ECCENTRICITY":0.0002025,"INCLINATION":97.6027,"RA_OF_ASC_NODE":311.1118,"ARG_OF_PERICENTER":67.8484,"MEAN_ANOMALY":292.2957,"EPHEMERIS_TYPE":0,"CLASSIFICATION_TYPE":"U","NORAD_CAT_ID":53682,"ELEMENT_SET_NO":999,"REV_AT_EPOCH":19329,"BSTAR":3.9471e-5,"MEAN_MOTION_DOT":5.09e-6,"MEAN_MOTION_DDOT":0},{"OBJECT_NAME":"CZ-4B R\/B","OBJECT_ID":"2008-053C","EPOCH":"2026-03-09T16:52:55.405920","MEAN_MOTION":15.20774751,"ECCENTRICITY":0.00860777,"INCLINATION":97.7895,"RA_OF_ASC_NODE":133.277,"ARG_OF_PERICENTER":241.1085,"MEAN_ANOMALY":118.1494,"EPHEMERIS_TYPE":0,"CLASSIFICATION_TYPE":"U","NORAD_CAT_ID":33410,"ELEMENT_SET_NO":999,"REV_AT_EPOCH":94950,"BSTAR":0.00029822835,"MEAN_MOTION_DOT":7.181e-5,"MEAN_MOTION_DDOT":0}]
